STARLINK-34568          
1 64717U 25142X   26199.83077227  .00002711  00000+0  23487-3 0  9999
2 64717  70.0027 343.8333 0003153 266.3795  93.7004 14.98338671 59131
STARLINK-34546          
1 64718U 25142Y   26199.79737806  .00002595  00000+0  22516-3 0  9993
2 64718  70.0024 343.7152 0003218 267.5577  92.5213 14.98336393 59295
STARLINK-34577          
1 64719U 25142Z   26199.83494884  .00007403  00000+0  62775-3 0  9999
2 64719  70.0019 343.8130 0003134 274.6763  85.4038 14.98316932 59136
STARLINK-34572          
1 64720U 25142AA  26199.82714976 -.00393552  00000+0 -36114-1 0  9998
2 64720  70.0027 343.8190 0006455 206.3425 153.7406 14.96945711 59295
STARLINK-34558          
1 64721U 25142AB  26199.82574766  .00162126  00000+0  12667-1 0  9996
2 64721  69.9983 343.8103 0005725 302.2078  57.8526 15.00155708 59109
MTG-S1                  
1 64723U 25143A   26199.79072490 -.00000013  00000+0  00000+0 0  9995
2 64723   0.5824 345.9806 0003311 259.1431 335.7516  1.00274651  3730
STARLINK-34393          
1 64724U 25144A   26199.64385654  .00012017  00000+0  36621-3 0  9998
2 64724  53.1591 291.9180 0000985 100.7183 259.3930 15.34401693 59787
STARLINK-34562          
1 64725U 25144B   26199.54350045  .00032342  00000+0  10997-2 0  9994
2 64725  53.1589 293.4258 0001250  79.1032 281.0109 15.30190451 59723
STARLINK-34557          
1 64726U 25144C   26199.67543759  .00015114  00000+0  45761-3 0  9991
2 64726  53.1587 292.1154 0000791  64.4025 295.7059 15.34394881 59779
STARLINK-34242          
1 64727U 25144D   26199.74680453  .00007106  00000+0  25186-3 0  9994
2 64727  53.1573 292.5570 0001152  94.9830 265.1302 15.30195508 59778
STARLINK-34239          
1 64728U 25144E   26199.52831654  .00015588  00000+0  47159-3 0  9999
2 64728  53.1611 292.6183 0000536 344.1207  15.9778 15.34394721 59754
STARLINK-34588          
1 64729U 25144F   26199.66777303  .00008772  00000+0  30793-3 0  9998
2 64729  53.1586 292.7750 0001086  89.3787 270.7339 15.30201400 59761
STARLINK-34606          
1 64730U 25144G   26199.58713398  .00018417  00000+0  55475-3 0  9996
2 64730  53.1602 292.2759 0000656 325.4075  34.6885 15.34407157 59766
STARLINK-34552          
1 64731U 25144H   26199.69224983  .00026835  00000+0  80310-3 0  9995
2 64731  53.1583 292.2157 0000983  83.5482 276.5633 15.34376918 59773
STARLINK-34596          
1 64732U 25144J   26199.64175300  .00013678  00000+0  41512-3 0  9991
2 64732  53.1600 291.9060 0000557 110.0278 250.0784 15.34405906 59773
STARLINK-34556          
1 64733U 25144K   26199.27562345  .00016985  00000+0  51269-3 0  9994
2 64733  53.1573 289.6283 0002547 111.0576 249.0700 15.34400132 59779
STARLINK-34591          
1 64734U 25144L   26199.83335647 -.00006741  00000+0 -18857-3 0  9997
2 64734  53.1573 291.4904 0001233  88.7552   6.0945 15.34398166  5907
STARLINK-34587          
1 64735U 25144M   26198.30038344  .00004224  00000+0  15463-3 0  9995
2 64735  53.1570 299.1758 0001105  62.0013 298.1100 15.30207224 59504
STARLINK-34130          
1 64736U 25144N   26199.59557000  .00017755  00000+0  53524-3 0  9996
2 64736  53.1598 292.3228 0005438  67.8492 292.3087 15.34398713 59765
STARLINK-34619          
1 64737U 25144P   26199.62039797  .00007706  00000+0  27201-3 0  9997
2 64737  53.1566 293.1863 0001139  96.4403 263.6727 15.30200716 59751
STARLINK-34597          
1 64738U 25144Q   26199.25935687  .00009060  00000+0  27900-3 0  9991
2 64738  53.1586 293.7818 0001257  88.8626 271.2521 15.34394939 59698
STARLINK-34471          
1 64739U 25144R   26198.62378554  .00006728  00000+0  23903-3 0  9993
2 64739  53.1584 297.6321 0001054  96.2377 263.8744 15.30204993 59544
STARLINK-34208          
1 64740U 25144S   26199.28193725  .00022090  00000+0  66302-3 0  9993
2 64740  53.1566 289.6636 0001565  72.5339 287.5835 15.34398647 59771
STARLINK-34205          
1 64741U 25144T   26199.64806920  .00017696  00000+0  53359-3 0  9996
2 64741  53.1590 291.9420 0001912  87.5944 272.5277 15.34402526 59776
STARLINK-34607          
1 64742U 25144U   26199.67515947  .00011847  00000+0  41140-3 0  9993
2 64742  53.1569 292.8177 0001237  87.7332 272.3810 15.30205196 59743
STARLINK-34236          
1 64743U 25144V   26199.58924161  .00014346  00000+0  43493-3 0  9996
2 64743  53.1600 292.2820 0000971 109.2147 250.8961 15.34397981 59765
STARLINK-34185          
1 64744U 25144W   26199.83335647 -.00015155  00000+0 -44999-3 0  9993
2 64744  53.1577 291.6120 0001562  89.9750 300.0562 15.33575800  5815
STARLINK-34581          
1 64745U 25144X   26199.68359907  .00010002  00000+0  34940-3 0  9991
2 64745  53.1580 292.8688 0001176 100.8544 259.2589 15.30197273 59765
STARLINK-34592          
1 64746U 25144Y   26199.83335647  .00021231  00000+0  64108-3 0  9999
2 64746  53.1583 279.2541 0001928 175.9956   0.8718 15.34232814  5907
STARLINK-34589          
1 64747U 25144Z   26199.26137632  .00009700  00000+0  29784-3 0  9999
2 64747  53.1578 281.6567 0001733 101.8401 258.2796 15.34401434 59881
