OBJECT_NAME,OBJECT_ID,EPOCH,MEAN_MOTION,ECCENTRICITY,INCLINATION,RA_OF_ASC_NODE,ARG_OF_PERICENTER,MEAN_ANOMALY,EPHEMERIS_TYPE,CLASSIFICATION_TYPE,NORAD_CAT_ID,ELEMENT_SET_NO,REV_AT_EPOCH,BSTAR,MEAN_MOTION_DOT,MEAN_MOTION_DDOT
STARLINK-34568,2025-142X,2026-07-18T19:56:18.724128,14.98338671,.0003153,70.0027,343.8333,266.3795,93.7004,0,U,64717,999,5913,.23487E-3,.2711E-4,0
STARLINK-34546,2025-142Y,2026-07-18T19:08:13.464384,14.98336393,.0003218,70.0024,343.7152,267.5577,92.5213,0,U,64718,999,5929,.22516E-3,.2595E-4,0
STARLINK-34577,2025-142Z,2026-07-18T20:02:19.579776,14.98316932,.0003134,70.0019,343.8130,274.6763,85.4038,0,U,64719,999,5913,.62775E-3,.7403E-4,0
STARLINK-34572,2025-142AA,2026-07-18T19:51:05.739264,14.96945711,.0006455,70.0027,343.8190,206.3425,153.7406,0,U,64720,999,5929,-.36114E-1,-.393552E-2,0
STARLINK-34558,2025-142AB,2026-07-18T19:49:04.597824,15.00155708,.0005725,69.9983,343.8103,302.2078,57.8526,0,U,64721,999,5910,.12667E-1,.162126E-2,0
MTG-S1,2025-143A,2026-07-18T18:58:38.631360,1.00274651,.0003311,0.5824,345.9806,259.1431,335.7516,0,U,64723,999,373,0,-.13E-6,0
STARLINK-34393,2025-144A,2026-07-18T15:27:09.205056,15.34401693,.0000985,53.1591,291.9180,100.7183,259.3930,0,U,64724,999,5978,.36621E-3,.12017E-3,0
STARLINK-34562,2025-144B,2026-07-18T13:02:38.438880,15.30190451,.00012505,53.1589,293.4258,79.1032,281.0109,0,U,64725,999,5972,.10996788E-2,.32342E-3,0
STARLINK-34557,2025-144C,2026-07-18T16:12:37.807776,15.34394881,.0000791,53.1587,292.1154,64.4025,295.7059,0,U,64726,999,5977,.45761E-3,.15114E-3,0
STARLINK-34242,2025-144D,2026-07-18T17:55:23.911392,15.30195508,.0001152,53.1573,292.5570,94.9830,265.1302,0,U,64727,999,5977,.25186E-3,.7106E-4,0
STARLINK-34239,2025-144E,2026-07-18T12:40:46.549056,15.34394721,.00005369,53.1611,292.6183,344.1207,15.9778,0,U,64728,999,5975,.47158993E-3,.15588E-3,0
STARLINK-34588,2025-144F,2026-07-18T16:01:35.589792,15.30201400,.0001086,53.1586,292.7750,89.3787,270.7339,0,U,64729,999,5976,.30793E-3,.8772E-4,0
STARLINK-34606,2025-144G,2026-07-18T14:05:28.375872,15.34407157,.0000656,53.1602,292.2759,325.4075,34.6885,0,U,64730,999,5976,.55475E-3,.18417E-3,0
STARLINK-34552,2025-144H,2026-07-18T16:36:50.385312,15.34376918,.0000983,53.1583,292.2157,83.5482,276.5633,0,U,64731,999,5977,.8031E-3,.26835E-3,0
STARLINK-34596,2025-144J,2026-07-18T15:24:07.459200,15.34405906,.0000557,53.1600,291.9060,110.0278,250.0784,0,U,64732,999,5977,.41512E-3,.13678E-3,0
STARLINK-34556,2025-144K,2026-07-18T06:36:53.866080,15.34400132,.00025479,53.1573,289.6283,111.0576,249.0700,0,U,64733,999,5977,.5126851E-3,.16985E-3,0
STARLINK-34591,2025-144L,2026-07-18T20:00:01.999008,15.34398166,.0001233,53.1573,291.4904,88.7552,6.0945,0,U,64734,999,590,-.18857E-3,-.6741E-4,0
STARLINK-34587,2025-144M,2026-07-17T07:12:33.129216,15.30207224,.0001105,53.1570,299.1758,62.0013,298.1100,0,U,64735,999,5950,.15463E-3,.4224E-4,0
STARLINK-34130,2025-144N,2026-07-18T14:17:37.248000,15.34398713,.0005438,53.1598,292.3228,67.8492,292.3087,0,U,64736,999,5976,.53524E-3,.17755E-3,0
STARLINK-34619,2025-144P,2026-07-18T14:53:22.384608,15.30200716,.0001139,53.1566,293.1863,96.4403,263.6727,0,U,64737,999,5975,.27201E-3,.7706E-4,0
STARLINK-34597,2025-144Q,2026-07-18T06:13:28.433568,15.34394939,.0001257,53.1586,293.7818,88.8626,271.2521,0,U,64738,999,5969,.27899722E-3,.906E-4,0
STARLINK-34471,2025-144R,2026-07-17T14:58:15.070656,15.30204993,.00010545,53.1584,297.6321,96.2377,263.8744,0,U,64739,999,5954,.23903256E-3,.6728E-4,0
STARLINK-34208,2025-144S,2026-07-18T06:45:59.378400,15.34398647,.00015652,53.1566,289.6636,72.5339,287.5835,0,U,64740,999,5977,.66302172E-3,.2209E-3,0
STARLINK-34205,2025-144T,2026-07-18T15:33:13.178880,15.34402526,.0001912,53.1590,291.9420,87.5944,272.5277,0,U,64741,999,5977,.53359E-3,.17696E-3,0
STARLINK-34607,2025-144U,2026-07-18T16:12:13.778208,15.30205196,.0001237,53.1569,292.8177,87.7332,272.3810,0,U,64742,999,5974,.4114E-3,.11847E-3,0
STARLINK-34236,2025-144V,2026-07-18T14:08:30.475104,15.34397981,.0000971,53.1600,292.2820,109.2147,250.8961,0,U,64743,999,5976,.43493E-3,.14346E-3,0
STARLINK-34185,2025-144W,2026-07-18T20:00:01.999008,15.33575800,.0001562,53.1577,291.6120,89.9750,300.0562,0,U,64744,999,581,-.44999E-3,-.15155E-3,0
STARLINK-34581,2025-144X,2026-07-18T16:24:22.959648,15.30197273,.0001176,53.1580,292.8688,100.8544,259.2589,0,U,64745,999,5976,.3494E-3,.10002E-3,0
STARLINK-34592,2025-144Y,2026-07-18T20:00:01.999008,15.34232814,.0001928,53.1583,279.2541,175.9956,0.8718,0,U,64746,999,590,.64108E-3,.21231E-3,0
STARLINK-34589,2025-144Z,2026-07-18T06:16:22.914048,15.34401434,.00017333,53.1578,281.6567,101.8401,258.2796,0,U,64747,999,5988,.29783993E-3,.97E-4,0
